ONEWEB-0661             
1 55821U 23029AB  24082.56994823  .00000036  00000+0  62602-4 0  9997
2 55821  87.8894  92.2597 0002000  74.2680 285.8670 13.14501984 52100
ONEWEB-0662             
1 55822U 23029AC  24082.52872616  .00000028  00000+0  42252-4 0  9999
2 55822  87.8890  92.2756 0001680  77.9061 282.2256 13.14503882 52144
ONEWEB-0663             
1 55823U 23029AD  24082.46378037  .00000156  00000+0  35073-3 0  9995
2 55823  87.9137  76.9949 0001747  74.5097 285.6229 13.20775937 53337
ONEWEB-0664             
1 55824U 23029AE  24082.53325736  .00000066  00000+0  13013-3 0  9992
2 55824  87.9137  76.9934 0002363  78.3653 281.7745 13.20773448 53343
ONEWEB-0665             
1 55825U 23029AF  24082.56679011  .00000100  00000+0  23485-3 0  9997
2 55825  87.8895  92.2356 0001908  76.2990 283.8352 13.14502116 52125
ONEWEB-0666             
1 55826U 23029AG  24082.52695760  .00000059  00000+0  11216-3 0  9995
2 55826  87.9138  76.9853 0002266  97.4240 262.7150 13.20772837 53353
ONEWEB-0667             
1 55827U 23029AH  24082.52062837  .00000046  00000+0  81215-4 0  9992
2 55827  87.9137  76.9205 0001982  77.1257 283.0098 13.20769208 53345
ONEWEB-0669             
1 55828U 23029AJ  24082.51589606  .00000036  00000+0  57291-4 0  9996
2 55828  87.9136  76.9595 0002739  90.8000 269.3448 13.20769054 53341
